STARLINK-2061
1 18312C 21036AN  21326.13287720  .00003427  00000-0  22954-3 0  3269
2 18312  53.0537 293.1506 0001940  58.8819  51.8992 15.06405182    19
